{
  "links" : {
    "next" : "https://api.nasa.gov/neo/rest/v1/feed?start_date=1998-09-23&end_date=1998-09-23&detailed=true&api_key=t0TVs3DtDT2H8Oy2Zy8m2eVrNsAVKAexjcZXUckd",
    "prev" : "https://api.nasa.gov/neo/rest/v1/feed?start_date=1998-09-21&end_date=1998-09-21&detailed=true&api_key=t0TVs3DtDT2H8Oy2Zy8m2eVrNsAVKAexjcZXUckd",
    "self" : "https://api.nasa.gov/neo/rest/v1/feed?start_date=1998-09-22&end_date=1998-09-22&detailed=true&api_key=t0TVs3DtDT2H8Oy2Zy8m2eVrNsAVKAexjcZXUckd"
  },
  "element_count" : 8,
  "near_earth_objects" : {
    "1998-09-22" : [ {
      "links" : {
        "self" : "https://api.nasa.gov/neo/rest/v1/neo/2066063?api_key=t0TVs3DtDT2H8Oy2Zy8m2eVrNsAVKAexjcZXUckd"
      },
      "neo_reference_id" : "2066063",
      "name" : "66063 (1998 RO1)",
      "nasa_jpl_url" : "http://ssd.jpl.nasa.gov/sbdb.cgi?sstr=2066063",
      "absolute_magnitude_h" : 18.1,
      "estimated_diameter" : {
        "kilometers" : {
          "estimated_diameter_min" : 0.6376097899,
          "estimated_diameter_max" : 1.4257388333
        },
        "meters" : {
          "estimated_diameter_min" : 637.6097898754,
          "estimated_diameter_max" : 1425.7388332807
        },
        "miles" : {
          "estimated_diameter_min" : 0.3961922327,
          "estimated_diameter_max" : 0.8859127646
        },
        "feet" : {
          "estimated_diameter_min" : 2091.8957030147,
          "estimated_diameter_max" : 4677.6209937807
        }
      },
      "is_potentially_hazardous_asteroid" : false,
      "close_approach_data" : [ {
        "close_approach_date" : "1998-09-22",
        "epoch_date_close_approach" : 906447600000,
        "relative_velocity" : {
          "kilometers_per_second" : "17.7963398305",
          "kilometers_per_hour" : "64066.8233899458",
          "miles_per_hour" : "39808.632566936"
        },
        "miss_distance" : {
          "astronomical" : "0.4318145995",
          "lunar" : "167.9758911133",
          "kilometers" : "64598548",
          "miles" : "40139676"
        },
        "orbiting_body" : "Earth"
      } ],
      "orbital_data" : {
        "orbit_id" : "120",
        "orbit_determination_date" : "2017-04-06 09:28:54",
        "orbit_uncertainty" : "0",
        "minimum_orbit_intersection" : ".0920815",
        "jupiter_tisserand_invariant" : "5.810",
        "epoch_osculation" : "2458000.5",
        "eccentricity" : ".7200434971207683",
        "semi_major_axis" : ".9909675638965778",
        "inclination" : "22.67803717390146",
        "ascending_node_longitude" : "351.8751141992348",
        "orbital_period" : "360.3193506060588",
        "perihelion_distance" : ".2774278136552375",
        "perihelion_argument" : "151.1313673774323",
        "aphelion_distance" : "1.704507314137918",
        "perihelion_time" : "2458011.535810189743",
        "mean_anomaly" : "348.9739708355243",
        "mean_motion" : ".9991137012055511",
        "equinox" : "J2000"
      }
    }, {
      "links" : {
        "self" : "https://api.nasa.gov/neo/rest/v1/neo/2369986?api_key=t0TVs3DtDT2H8Oy2Zy8m2eVrNsAVKAexjcZXUckd"
      },
      "neo_reference_id" : "2369986",
      "name" : "369986 (1998 SO)",
      "nasa_jpl_url" : "http://ssd.jpl.nasa.gov/sbdb.cgi?sstr=2369986",
      "absolute_magnitude_h" : 20.6,
      "estimated_diameter" : {
        "kilometers" : {
          "estimated_diameter_min" : 0.2016299194,
          "estimated_diameter_max" : 0.4508582062
        },
        "meters" : {
          "estimated_diameter_min" : 201.6299194428,
          "estimated_diameter_max" : 450.8582061718
        },
        "miles" : {
          "estimated_diameter_min" : 0.1252869847,
          "estimated_diameter_max" : 0.2801502144
        },
        "feet" : {
          "estimated_diameter_min" : 661.5155049046,
          "estimated_diameter_max" : 1479.1936371367
        }
      },
      "is_potentially_hazardous_asteroid" : false,
      "close_approach_data" : [ {
        "close_approach_date" : "1998-09-22",
        "epoch_date_close_approach" : 906447600000,
        "relative_velocity" : {
          "kilometers_per_second" : "18.5676411693",
          "kilometers_per_hour" : "66843.5082093216",
          "miles_per_hour" : "41533.9565315087"
        },
        "miss_distance" : {
          "astronomical" : "0.2351520335",
          "lunar" : "91.4741439819",
          "kilometers" : "35178244",
          "miles" : "21858748"
        },
        "orbiting_body" : "Earth"
      } ],
      "orbital_data" : {
        "orbit_id" : "31",
        "orbit_determination_date" : "2017-04-06 09:22:32",
        "orbit_uncertainty" : "0",
        "minimum_orbit_intersection" : ".198787",
        "jupiter_tisserand_invariant" : "7.576",
        "epoch_osculation" : "2458000.5",
        "eccentricity" : ".6985957132571475",
        "semi_major_axis" : ".7315079080521292",
        "inclination" : "30.34471532020354",
        "ascending_node_longitude" : "176.1496741794256",
        "orbital_period" : "228.5214468595822",
        "perihelion_distance" : ".2204796192732081",
        "perihelion_argument" : "359.8568383897207",
        "aphelion_distance" : "1.24253619683105",
        "perihelion_time" : "2458037.650067830598",
        "mean_anomaly" : "301.4758456906104",
        "mean_motion" : "1.575344480560752",
        "equinox" : "J2000"
      }
    }, {
      "links" : {
        "self" : "https://api.nasa.gov/neo/rest/v1/neo/3117418?api_key=t0TVs3DtDT2H8Oy2Zy8m2eVrNsAVKAexjcZXUckd"
      },
      "neo_reference_id" : "3117418",
      "name" : "(2002 EY)",
      "nasa_jpl_url" : "http://ssd.jpl.nasa.gov/sbdb.cgi?sstr=3117418",
      "absolute_magnitude_h" : 19.9,
      "estimated_diameter" : {
        "kilometers" : {
          "estimated_diameter_min" : 0.2783267681,
          "estimated_diameter_max" : 0.6223575734
        },
        "meters" : {
          "estimated_diameter_min" : 278.3267680719,
          "estimated_diameter_max" : 622.3575733667
        },
        "miles" : {
          "estimated_diameter_min" : 0.1729441822,
          "estimated_diameter_max" : 0.3867149477
        },
        "feet" : {
          "estimated_diameter_min" : 913.1455937611,
          "estimated_diameter_max" : 2041.8556210042
        }
      },
      "is_potentially_hazardous_asteroid" : false,
      "close_approach_data" : [ {
        "close_approach_date" : "1998-09-22",
        "epoch_date_close_approach" : 906447600000,
        "relative_velocity" : {
          "kilometers_per_second" : "21.243213354",
          "kilometers_per_hour" : "76475.568074292",
          "miles_per_hour" : "47518.9439514955"
        },
        "miss_distance" : {
          "astronomical" : "0.1567763211",
          "lunar" : "60.9859886169",
          "kilometers" : "23453404",
          "miles" : "14573270"
        },
        "orbiting_body" : "Earth"
      } ],
      "orbital_data" : {
        "orbit_id" : "18",
        "orbit_determination_date" : "2017-04-06 09:15:23",
        "orbit_uncertainty" : "6",
        "minimum_orbit_intersection" : ".108364",
        "jupiter_tisserand_invariant" : "3.369",
        "epoch_osculation" : "2458000.5",
        "eccentricity" : ".6302211351370199",
        "semi_major_axis" : "2.137106148093375",
        "inclination" : "20.22897290710068",
        "ascending_node_longitude" : "170.8223047384068",
        "orbital_period" : "1141.13642286587",
        "perihelion_distance" : ".790256685533664",
        "perihelion_argument" : "264.8788037849466",
        "aphelion_distance" : "3.483955610653086",
        "perihelion_time" : "2457975.821333842624",
        "mean_anomaly" : "7.785501924776954",
        "mean_motion" : ".3154749886046839",
        "equinox" : "J2000"
      }
    } ]
  }
}